OBJECT B                
1 51825U 22019B   24182.88897841  .00015771  00000+0  68426-3 0  9994
2 51825  97.4285 254.0667 0014633 185.0493 175.0599 15.22330650129314
